COSMOS 2251 DEB         
1 34963U 93036AES 23210.38435778  .00003990  00000+0  13021-2 0  9998
2 34963  74.1758 203.3469 0052470 281.4214  78.1049 14.38146794747853
COSMOS 2251 DEB         
1 34964U 93036AET 23210.22314689  .00002711  00000+0  17046-2 0  9990
2 34964  73.9775  47.2341 0232876  89.8307 272.9504 13.92310415726272
COSMOS 2251 DEB         
1 34965U 93036AEU 23210.28202228  .00000990  00000+0  28960-3 0  9997
2 34965  74.0544 307.6297 0028314 292.2736  67.5420 14.45092021753621
COSMOS 2251 DEB         
1 34967U 93036AEW 23209.88097567  .00001826  00000+0  61104-3 0  9997
2 34967  73.9960  63.9326 0043014  55.2110 305.3079 14.37559739747794
COSMOS 2251 DEB         
1 34968U 93036AEX 23209.68889698  .00000888  00000+0  19394-3 0  9991
2 34968  74.0394  98.5403 0089205  79.9151 281.2063 14.56934592759106
COSMOS 2251 DEB         
1 34969U 93036AEY 23209.25897296  .00000834  00000+0  32634-3 0  9991
2 34969  74.0146 166.4843 0077185 144.2786 216.3563 14.29436192527154
COSMOS 2251 DEB         
1 34971U 93036AFA 23210.52831014  .00000733  00000+0  17926-3 0  9997
2 34971  73.9796 130.4870 0074244 200.4176 334.8805 14.52802744758278
COSMOS 2251 DEB         
1 34972U 93036AFB 23208.63178774  .00003936  00000+0  96599-3 0  9995
2 34972  73.9973 276.6511 0051565 281.3448 229.6568 14.51914377750535
COSMOS 2251 DEB         
1 34976U 93036AFF 23209.62570694  .00004086  00000+0  84906-3 0  9992
2 34976  74.0639 180.0008 0060713  98.6344  19.0828 14.59257325755826
COSMOS 2251 DEB         
1 34977U 93036AFG 23210.90750447  .00015080  00000+0  28464-2 0  9994
2 34977  74.0240 290.9090 0039867 223.3693 136.4336 14.63959649750733
COSMOS 2251 DEB         
1 34978U 93036AFH 23211.13012951  .00079168  00000+0  40953-2 0  9996
2 34978  74.0119 258.4880 0025037 269.2645  90.5681 15.15577356762606
COSMOS 2251 DEB         
1 34979U 93036AFJ 23210.56423801  .00005390  00000+0  10709-2 0  9995
2 34979  74.0456 146.6837 0065992  91.6335 269.2392 14.60993523754891
COSMOS 2251 DEB         
1 34989U 93036AFM 23210.02757256  .00007657  00000+0  14627-2 0  9992
2 34989  74.0176 172.2851 0025921 168.8519 191.3229 14.63856857752568
COSMOS 2251 DEB         
1 34990U 93036AFN 23208.93407329  .00001097  00000+0  36776-3 0  9996
2 34990  74.0457  56.7042 0016658 336.0462  23.9915 14.38392516748378
COSMOS 2251 DEB         
1 34991U 93036AFP 23210.54644770  .00026199  00000+0  36255-2 0  9991
2 34991  74.0379 141.7613 0010277 149.7207 210.4564 14.77907367757987
COSMOS 2251 DEB         
1 34997U 93036AFV 23209.47602860  .00002863  00000+0  99004-3 0  9995
2 34997  73.8888 127.7449 0117161 279.5746  79.2181 14.32429976744197
COSMOS 2251 DEB         
1 34998U 93036AFW 23209.79315876  .00001761  00000+0  53162-3 0  9990
2 34998  74.0159 342.1253 0022907 335.4892 175.3571 14.43062617749525
COSMOS 2251 DEB         
1 35000U 93036AFY 23210.27459650  .00010646  00000+0  18635-2 0  9996
2 35000  74.0374 142.2424 0064078  81.2924 279.5496 14.66555374755910
COSMOS 2251 DEB         
1 35012U 93036AFZ 23210.88560297  .00000431  00000+0  12945-3 0  9996
2 35012  74.0213 287.3205 0084032 277.8344  81.3280 14.43796954750702
COSMOS 2251 DEB         
1 35014U 93036AGB 23200.93117487  .00005199  00000+0  12722-2 0  9990
2 35014  74.0087 287.4898 0012817 295.7600  64.2239 14.52710863585163
COSMOS 2251 DEB         
1 35015U 93036AGC 23210.81403549  .00003075  00000+0  98684-3 0  9999
2 35015  73.9512  51.1831 0086830 113.7598 260.8630 14.37725576748057
COSMOS 2251 DEB         
1 35016U 93036AGD 23209.96820758  .00000806  00000+0  29023-3 0  9999
2 35016  73.9308  91.0533 0120423 194.0797 179.5900 14.31397363743631
COSMOS 2251 DEB         
1 35018U 93036AGF 23210.35585702  .00001305  00000+0  11003-2 0  9996
2 35018  73.9770  92.8148 0362610 178.0614 182.2010 13.62387830714275
COSMOS 2251 DEB         
1 35020U 93036AGH 23208.97682336  .00000768  00000+0  15658-3 0  9998
2 35020  74.0494  59.3384 0094614  37.6741 323.1000 14.59985480755474
COSMOS 2251 DEB         
1 35022U 93036AGK 23210.16243207  .00001885  00000+0  44322-3 0  9995
2 35022  74.0270 171.9160 0054144 227.5764 132.0813 14.54237195758762
COSMOS 2251 DEB         
1 35023U 93036AGL 23209.75155696  .00006555  00000+0  12039-2 0  9991
2 35023  74.0503 115.8494 0058712  60.9017 330.7183 14.64751955754729
COSMOS 2251 DEB         
1 35025U 93036AGN 23210.25685208  .00002218  00000+0  39310-3 0  9991
2 35025  73.9426 311.9089 0094993  64.6961 296.4010 14.64994442759689
COSMOS 2251 DEB         
1 35026U 93036AGP 23209.61137633  .00000296  00000+0  76032-4 0  9991
2 35026  74.0468 156.3365 0084077 130.8753  43.2511 14.52610967755339
COSMOS 2251 DEB         
1 35028U 93036AGR 23210.09362476  .00000470  00000+0  11059-3 0  9993
2 35028  74.0387 115.6159 0084272 109.3558 316.4072 14.55110002757417
COSMOS 2251 DEB         
1 35031U 93036AGU 23208.87224474  .00000480  00000+0  17196-3 0  9994
2 35031  74.0382  57.8004 0019047   5.4609 354.6748 14.36561437748069
COSMOS 2251 DEB         
1 35032U 93036AGV 23209.73356774  .00002093  00000+0  55819-3 0  9996
2 35032  73.8538 222.8689 0082776 247.1574 234.5936 14.47098421750831
COSMOS 2251 DEB         
1 35033U 93036AGW 23209.14439159  .00002248  00000+0  67401-3 0  9993
2 35033  74.0313   0.7058 0015921 318.1669  41.8270 14.43293630533633
COSMOS 2251 DEB         
1 35037U 93036AHA 23209.36793498  .00007808  00000+0  13442-2 0  9992
2 35037  74.0008  92.3836 0038796 112.3337 248.1952 14.68219294542315
COSMOS 2251 DEB         
1 35038U 93036AHB 23209.84703104  .00004745  00000+0  22763-2 0  9994
2 35038  74.1106 148.9012 0127835 357.6731  33.8592 14.14995543733865
COSMOS 2251 DEB         
1 35043U 93036AHG 23209.52407502  .00005039  00000+0  14494-2 0  9997
2 35043  73.9673 252.7436 0183550 298.5903  59.6886 14.35660851738895
COSMOS 2251 DEB         
1 35045U 93036AHJ 23209.16721420  .00000877  00000+0  55330-3 0  9997
2 35045  73.7195 142.5692 0189671 154.8259 206.2268 13.97196989724984
COSMOS 2251 DEB         
1 35059U 93036AHN 23210.92701191  .00239920  00000+0  99089-2 0  9992
2 35059  73.9699  30.5194 0010932  81.4859 278.7577 15.22826021759620
COSMOS 2251 DEB         
1 35060U 93036AHP 23208.25105177  .00001018  00000+0  34310-3 0  9991
2 35060  74.0379  50.5095 0018833 351.2983   8.7842 14.38205884747273
COSMOS 2251 DEB         
1 35061U 93036AHQ 23209.15975364  .00002940  00000+0  64727-3 0  9995
2 35061  74.0487 168.3269 0047815 146.2227 214.2000 14.57192503758782
COSMOS 2251 DEB         
1 35062U 93036AHR 23209.38290861  .00004507  00000+0  22350-2 0  9999
2 35062  74.0852 195.8072 0146103  51.7444 309.6738 14.12043896732484
COSMOS 2251 DEB         
1 35065U 93036AHU 23209.14309774  .00001437  00000+0  45447-3 0  9992
2 35065  74.0233   9.4187 0020860 345.3359  14.7189 14.40949721558196
COSMOS 2251 DEB         
1 35067U 93036AHW 23210.87114811  .00012301  00000+0  17443-2 0  9998
2 35067  73.7523 272.2870 0056541  28.6685 331.7575 14.75947937757460
COSMOS 2251 DEB         
1 35071U 93036AJA 23210.48413100  .00003694  00000+0  43401-3 0  9992
2 35071  73.9415 123.7862 0104552 228.0709 131.1521 14.81419740767891
COSMOS 2251 DEB         
1 35073U 93036AJC 23207.80379843  .00007751  00000+0  16554-2 0  9997
2 35073  74.0179 234.8828 0034481 208.8210 151.1052 14.58618957546480
COSMOS 2251 DEB         
1 35076U 93036AJF 23210.00889359  .00005826  00000+0  85868-3 0  9990
2 35076  73.9702 316.6165 0063718  16.5947 343.7290 14.74185040760999
COSMOS 2251 DEB         
1 35278U 93036AJG 23210.40152448  .00023245  00000+0  40945-2 0  9991
2 35278  74.0397 332.0850 0040589 228.6519 188.4709 14.66935542750911
COSMOS 2251 DEB         
1 35279U 93036AJH 23210.78384529  .00193811  00000+0  52048-2 0  9994
2 35279  73.9754 246.1886 0021517 277.1557  82.7202 15.36861501761470
COSMOS 2251 DEB         
1 35280U 93036AJJ 23208.66889249  .00009909  00000+0  22707-2 0  9992
2 35280  74.0333 346.0964 0052597 284.0798  75.4522 14.54824932748723
COSMOS 2251 DEB         
1 35281U 93036AJK 23209.62026016  .00012757  00000+0  22387-2 0  9994
2 35281  73.9987 174.1031 0017829 306.3615  53.5908 14.67661899753868
COSMOS 2251 DEB         
1 35282U 93036AJL 23209.68893096  .00010724  00000+0  18404-2 0  9998
2 35282  74.0992 293.3956 0072420 141.2544 219.3852 14.67047469751704
COSMOS 2251 DEB         
1 35284U 93036AJN 23210.28072052  .00000480  00000+0  17177-3 0  9994
2 35284  74.0492  59.4605 0016870 352.3053 127.7996 14.36638143748045
COSMOS 2251 DEB         
1 35287U 93036AJR 23209.59049111  .00000340  00000+0  12831-3 0  9996
2 35287  74.0299  69.7505 0017886  17.9768  10.6750 14.35080286744335
COSMOS 2251 DEB         
1 35288U 93036AJS 23209.75515775  .00003034  00000+0  76225-3 0  9999
2 35288  73.9537 234.3009 0048694 303.1892  56.4603 14.51011096753131
COSMOS 2251 DEB         
1 35290U 93036AJU 23209.93857344  .00004457  00000+0  10859-2 0  9993
2 35290  74.0175 291.0608 0010636 254.5543 105.4444 14.52979887754339
COSMOS 2251 DEB         
1 35291U 93036AJV 23208.29782165  .00044213  00000+0  18964-2 0  9999
2 35291  74.0342 321.4396 0050955 251.4861 108.0796 15.21325016774804
COSMOS 2251 DEB         
1 35432U 93036AKA 23210.24975050  .00006997  00000+0  15517-2 0  9999
2 35432  74.0455 281.4075 0005804 215.1985 144.8797 14.57268183747787
COSMOS 2251 DEB         
1 35433U 93036AKB 23210.47047546  .00000806  00000+0  30584-3 0  9990
2 35433  74.0353 124.5639 0027039  31.1111  86.2372 14.32458567743165
COSMOS 2251 DEB         
1 35434U 93036AKC 23211.00793503  .00001537  00000+0  69051-3 0  9995
2 35434  74.0443 331.9189 0093095 251.1713 107.9318 14.20978199742689
COSMOS 2251 DEB         
1 35435U 93036AKD 23210.08543236  .00005507  00000+0  13947-2 0  9992
2 35435  74.0241 329.6443 0019318 272.8422 262.1385 14.51012116749245
